[{"OBJECT_NAME":"STARLINK-30245","OBJECT_ID":"2023-119L","EPOCH":"2026-03-18T00:00:02.000160","MEAN_MOTION":15.26747329,"ECCENTRICITY":0.00014474,"INCLINATION":43.0019,"RA_OF_ASC_NODE":34.2396,"ARG_OF_PERICENTER":261.265,"MEAN_ANOMALY":40.8831,"EPHEMERIS_TYPE":0,"CLASSIFICATION_TYPE":"U","NORAD_CAT_ID":57612,"ELEMENT_SET_NO":999,"REV_AT_EPOCH":574,"BSTAR":-0.00049881471,"MEAN_MOTION_DOT":-0.00013618,"MEAN_MOTION_DDOT":0},{"OBJECT_NAME":"STARLINK-30041","OBJECT_ID":"2023-119M","EPOCH":"2026-03-18T06:00:02.000160","MEAN_MOTION":15.27554525,"ECCENTRICITY":0.00013656,"INCLINATION":43.0012,"RA_OF_ASC_NODE":33.0036,"ARG_OF_PERICENTER":281.5434,"MEAN_ANOMALY":243.1152,"EPHEMERIS_TYPE":0,"CLASSIFICATION_TYPE":"U","NORAD_CAT_ID":57613,"ELEMENT_SET_NO":999,"REV_AT_EPOCH":578,"BSTAR":0.0016063816,"MEAN_MOTION_DOT":0.00044173,"MEAN_MOTION_DDOT":0},{"OBJECT_NAME":"STARLINK-30244","OBJECT_ID":"2023-119N","EPOCH":"2026-03-18T06:00:02.000160","MEAN_MOTION":15.26730599,"ECCENTRICITY":0.00015142,"INCLINATION":43.0011,"RA_OF_ASC_NODE":33.0544,"ARG_OF_PERICENTER":272.1448,"MEAN_ANOMALY":231.0724,"EPHEMERIS_TYPE":0,"CLASSIFICATION_TYPE":"U","NORAD_CAT_ID":57614,"ELEMENT_SET_NO":999,"REV_AT_EPOCH":573,"BSTAR":0.0016156204,"MEAN_MOTION_DOT":0.0004332,"MEAN_MOTION_DDOT":0},{"OBJECT_NAME":"STARLINK-30246","OBJECT_ID":"2023-119P","EPOCH":"2026-03-18T06:00:02.000160","MEAN_MOTION":15.26705119,"ECCENTRICITY":0.00016086,"INCLINATION":43.0055,"RA_OF_ASC_NODE":33.1053,"ARG_OF_PERICENTER":253.4748,"MEAN_ANOMALY":222.0046,"EPHEMERIS_TYPE":0,"CLASSIFICATION_TYPE":"U","NORAD_CAT_ID":57615,"ELEMENT_SET_NO":999,"REV_AT_EPOCH":578,"BSTAR":0.001868228,"MEAN_MOTION_DOT":0.00050141,"MEAN_MOTION_DDOT":0},{"OBJECT_NAME":"STARLINK-30075","OBJECT_ID":"2023-119Q","EPOCH":"2026-03-17T22:31:34.515552","MEAN_MOTION":15.26749152,"ECCENTRICITY":0.00014619,"INCLINATION":43.0026,"RA_OF_ASC_NODE":34.5072,"ARG_OF_PERICENTER":251.6432,"MEAN_ANOMALY":108.4261,"EPHEMERIS_TYPE":0,"CLASSIFICATION_TYPE":"U","NORAD_CAT_ID":57616,"ELEMENT_SET_NO":999,"REV_AT_EPOCH":14435,"BSTAR":0.00011397001,"MEAN_MOTION_DOT":2.799e-5,"MEAN_MOTION_DDOT":0},{"OBJECT_NAME":"STARLINK-30148","OBJECT_ID":"2023-119R","EPOCH":"2026-03-17T21:08:08.634336","MEAN_MOTION":15.26760449,"ECCENTRICITY":0.00027259,"INCLINATION":43.0054,"RA_OF_ASC_NODE":34.9339,"ARG_OF_PERICENTER":268.2064,"MEAN_ANOMALY":91.8475,"EPHEMERIS_TYPE":0,"CLASSIFICATION_TYPE":"U","NORAD_CAT_ID":57617,"ELEMENT_SET_NO":999,"REV_AT_EPOCH":14434,"BSTAR":0.00021170241,"MEAN_MOTION_DOT":5.426e-5,"MEAN_MOTION_DDOT":0},{"OBJECT_NAME":"STARLINK-30249","OBJECT_ID":"2023-119S","EPOCH":"2026-03-17T22:24:10.993248","MEAN_MOTION":15.26684885,"ECCENTRICITY":0.00024396,"INCLINATION":43.0007,"RA_OF_ASC_NODE":34.4679,"ARG_OF_PERICENTER":266.8647,"MEAN_ANOMALY":93.1925,"EPHEMERIS_TYPE":0,"CLASSIFICATION_TYPE":"U","NORAD_CAT_ID":57618,"ELEMENT_SET_NO":999,"REV_AT_EPOCH":14435,"BSTAR":0.0004863423,"MEAN_MOTION_DOT":0.00012787,"MEAN_MOTION_DDOT":0},{"OBJECT_NAME":"STARLINK-30141","OBJECT_ID":"2023-119U","EPOCH":"2026-03-17T22:41:10.737024","MEAN_MOTION":15.26748919,"ECCENTRICITY":0.00014482,"INCLINATION":43.0027,"RA_OF_ASC_NODE":34.5547,"ARG_OF_PERICENTER":247.5136,"MEAN_ANOMALY":112.5562,"EPHEMERIS_TYPE":0,"CLASSIFICATION_TYPE":"U","NORAD_CAT_ID":57620,"ELEMENT_SET_NO":999,"REV_AT_EPOCH":14435,"BSTAR":0.00013828311,"MEAN_MOTION_DOT":3.452e-5,"MEAN_MOTION_DDOT":0},{"OBJECT_NAME":"STARLINK-30150","OBJECT_ID":"2023-119V","EPOCH":"2026-03-17T22:32:22.231680","MEAN_MOTION":15.26741812,"ECCENTRICITY":0.00014107,"INCLINATION":43.0007,"RA_OF_ASC_NODE":34.5082,"ARG_OF_PERICENTER":258.4756,"MEAN_ANOMALY":101.5937,"EPHEMERIS_TYPE":0,"CLASSIFICATION_TYPE":"U","NORAD_CAT_ID":57621,"ELEMENT_SET_NO":999,"REV_AT_EPOCH":14435,"BSTAR":3.6367099e-5,"MEAN_MOTION_DOT":7.16e-6,"MEAN_MOTION_DDOT":0},{"OBJECT_NAME":"STARLINK-30056","OBJECT_ID":"2023-119W","EPOCH":"2026-03-18T06:00:02.000160","MEAN_MOTION":15.26727024,"ECCENTRICITY":0.00018055,"INCLINATION":43.0016,"RA_OF_ASC_NODE":32.9543,"ARG_OF_PERICENTER":271.7691,"MEAN_ANOMALY":265.5205,"EPHEMERIS_TYPE":0,"CLASSIFICATION_TYPE":"U","NORAD_CAT_ID":57622,"ELEMENT_SET_NO":999,"REV_AT_EPOCH":577,"BSTAR":0.0016093677,"MEAN_MOTION_DOT":0.00043146,"MEAN_MOTION_DDOT":0},{"OBJECT_NAME":"STARLINK-30100","OBJECT_ID":"2023-119X","EPOCH":"2026-03-18T06:00:02.000160","MEAN_MOTION":15.26727538,"ECCENTRICITY":0.00016043,"INCLINATION":43.0006,"RA_OF_ASC_NODE":33.1755,"ARG_OF_PERICENTER":270.0112,"MEAN_ANOMALY":184.8367,"EPHEMERIS_TYPE":0,"CLASSIFICATION_TYPE":"U","NORAD_CAT_ID":57623,"ELEMENT_SET_NO":999,"REV_AT_EPOCH":577,"BSTAR":0.0015552532,"MEAN_MOTION_DOT":0.00041678,"MEAN_MOTION_DDOT":0},{"OBJECT_NAME":"STARLINK-30309","OBJECT_ID":"2023-122A","EPOCH":"2026-03-18T04:17:45.549888","MEAN_MOTION":15.267395,"ECCENTRICITY":7.71e-5,"INCLINATION":43.0007,"RA_OF_ASC_NODE":44.6999,"ARG_OF_PERICENTER":229.1555,"MEAN_ANOMALY":130.923,"EPHEMERIS_TYPE":0,"CLASSIFICATION_TYPE":"U","NORAD_CAT_ID":57632,"ELEMENT_SET_NO":999,"REV_AT_EPOCH":14350,"BSTAR":4.1540908e-5,"MEAN_MOTION_DOT":8.55e-6,"MEAN_MOTION_DDOT":0},{"OBJECT_NAME":"STARLINK-30306","OBJECT_ID":"2023-122B","EPOCH":"2026-03-18T04:24:30.311424","MEAN_MOTION":15.26737281,"ECCENTRICITY":6.686e-5,"INCLINATION":42.9958,"RA_OF_ASC_NODE":44.7312,"ARG_OF_PERICENTER":176.9972,"MEAN_ANOMALY":183.0884,"EPHEMERIS_TYPE":0,"CLASSIFICATION_TYPE":"U","NORAD_CAT_ID":57633,"ELEMENT_SET_NO":999,"REV_AT_EPOCH":14350,"BSTAR":1.1631608e-5,"MEAN_MOTION_DOT":5.3e-7,"MEAN_MOTION_DDOT":0},{"OBJECT_NAME":"STARLINK-30323","OBJECT_ID":"2023-122C","EPOCH":"2026-03-18T00:00:02.000160","MEAN_MOTION":15.26746198,"ECCENTRICITY":0.00011849,"INCLINATION":43.0019,"RA_OF_ASC_NODE":34.1394,"ARG_OF_PERICENTER":256.3695,"MEAN_ANOMALY":65.5003,"EPHEMERIS_TYPE":0,"CLASSIFICATION_TYPE":"U","NORAD_CAT_ID":57634,"ELEMENT_SET_NO":999,"REV_AT_EPOCH":564,"BSTAR":-0.00049027038,"MEAN_MOTION_DOT":-0.00013389,"MEAN_MOTION_DDOT":0},{"OBJECT_NAME":"STARLINK-30329","OBJECT_ID":"2023-122D","EPOCH":"2026-03-17T22:16:43.028256","MEAN_MOTION":15.267401,"ECCENTRICITY":0.00014853,"INCLINATION":43.0003,"RA_OF_ASC_NODE":46.2566,"ARG_OF_PERICENTER":274.6997,"MEAN_ANOMALY":85.3685,"EPHEMERIS_TYPE":0,"CLASSIFICATION_TYPE":"U","NORAD_CAT_ID":57635,"ELEMENT_SET_NO":999,"REV_AT_EPOCH":14346,"BSTAR":0.00012615807,"MEAN_MOTION_DOT":3.126e-5,"MEAN_MOTION_DDOT":0},{"OBJECT_NAME":"STARLINK-30330","OBJECT_ID":"2023-122E","EPOCH":"2026-03-17T22:22:28.169472","MEAN_MOTION":15.2672188,"ECCENTRICITY":0.00010472,"INCLINATION":42.9966,"RA_OF_ASC_NODE":46.2866,"ARG_OF_PERICENTER":291.8597,"MEAN_ANOMALY":68.2142,"EPHEMERIS_TYPE":0,"CLASSIFICATION_TYPE":"U","NORAD_CAT_ID":57636,"ELEMENT_SET_NO":999,"REV_AT_EPOCH":14346,"BSTAR":3.7347471e-5,"MEAN_MOTION_DOT":7.42e-6,"MEAN_MOTION_DDOT":0},{"OBJECT_NAME":"STARLINK-30311","OBJECT_ID":"2023-122F","EPOCH":"2026-03-17T22:42:07.494048","MEAN_MOTION":15.26751279,"ECCENTRICITY":0.00012754,"INCLINATION":43.0002,"RA_OF_ASC_NODE":45.5276,"ARG_OF_PERICENTER":283.6239,"MEAN_ANOMALY":76.447,"EPHEMERIS_TYPE":0,"CLASSIFICATION_TYPE":"U","NORAD_CAT_ID":57637,"ELEMENT_SET_NO":999,"REV_AT_EPOCH":14347,"BSTAR":0.00015598822,"MEAN_MOTION_DOT":3.928e-5,"MEAN_MOTION_DDOT":0},{"OBJECT_NAME":"STARLINK-30328","OBJECT_ID":"2023-122G","EPOCH":"2026-03-18T06:00:02.000160","MEAN_MOTION":15.26727348,"ECCENTRICITY":0.00014521,"INCLINATION":43.0019,"RA_OF_ASC_NODE":32.6656,"ARG_OF_PERICENTER":280.0504,"MEAN_ANOMALY":340.9243,"EPHEMERIS_TYPE":0,"CLASSIFICATION_TYPE":"U","NORAD_CAT_ID":57638,"ELEMENT_SET_NO":999,"REV_AT_EPOCH":578,"BSTAR":0.0014621396,"MEAN_MOTION_DOT":0.00039153,"MEAN_MOTION_DDOT":0},{"OBJECT_NAME":"STARLINK-30326","OBJECT_ID":"2023-122H","EPOCH":"2026-03-17T21:46:27.559488","MEAN_MOTION":15.27569702,"ECCENTRICITY":0.00017631,"INCLINATION":43.0044,"RA_OF_ASC_NODE":46.088,"ARG_OF_PERICENTER":238.2617,"MEAN_ANOMALY":121.8063,"EPHEMERIS_TYPE":0,"CLASSIFICATION_TYPE":"U","NORAD_CAT_ID":57639,"ELEMENT_SET_NO":999,"REV_AT_EPOCH":14346,"BSTAR":4.6686891e-5,"MEAN_MOTION_DOT":1.022e-5,"MEAN_MOTION_DDOT":0},{"OBJECT_NAME":"STARLINK-30324","OBJECT_ID":"2023-122J","EPOCH":"2026-03-17T22:12:23.105952","MEAN_MOTION":15.27524697,"ECCENTRICITY":0.00014323,"INCLINATION":43.0015,"RA_OF_ASC_NODE":46.2332,"ARG_OF_PERICENTER":266.8964,"MEAN_ANOMALY":93.1724,"EPHEMERIS_TYPE":0,"CLASSIFICATION_TYPE":"U","NORAD_CAT_ID":57640,"ELEMENT_SET_NO":999,"REV_AT_EPOCH":14345,"BSTAR":0.00057837403,"MEAN_MOTION_DOT":0.00015661,"MEAN_MOTION_DDOT":0},{"OBJECT_NAME":"STARLINK-30312","OBJECT_ID":"2023-122K","EPOCH":"2026-03-17T22:34:21.172512","MEAN_MOTION":15.27582639,"ECCENTRICITY":0.00016116,"INCLINATION":43.0005,"RA_OF_ASC_NODE":45.4899,"ARG_OF_PERICENTER":278.5694,"MEAN_ANOMALY":81.4976,"EPHEMERIS_TYPE":0,"CLASSIFICATION_TYPE":"U","NORAD_CAT_ID":57641,"ELEMENT_SET_NO":999,"REV_AT_EPOCH":14347,"BSTAR":1.4972632e-5,"MEAN_MOTION_DOT":1.5e-6,"MEAN_MOTION_DDOT":0},{"OBJECT_NAME":"STARLINK-30263","OBJECT_ID":"2023-122L","EPOCH":"2026-03-17T22:48:19.408032","MEAN_MOTION":15.26722315,"ECCENTRICITY":0.00010097,"INCLINATION":43.0011,"RA_OF_ASC_NODE":45.5594,"ARG_OF_PERICENTER":268.4039,"MEAN_ANOMALY":91.6696,"EPHEMERIS_TYPE":0,"CLASSIFICATION_TYPE":"U","NORAD_CAT_ID":57642,"ELEMENT_SET_NO":999,"REV_AT_EPOCH":14347,"BSTAR":0.00017340996,"MEAN_MOTION_DOT":4.392e-5,"MEAN_MOTION_DDOT":0},{"OBJECT_NAME":"STARLINK-30280","OBJECT_ID":"2023-122M","EPOCH":"2026-03-17T23:00:15.330528","MEAN_MOTION":15.27580927,"ECCENTRICITY":0.00014099,"INCLINATION":43.0032,"RA_OF_ASC_NODE":45.6206,"ARG_OF_PERICENTER":265.8893,"MEAN_ANOMALY":94.1798,"EPHEMERIS_TYPE":0,"CLASSIFICATION_TYPE":"U","NORAD_CAT_ID":57643,"ELEMENT_SET_NO":999,"REV_AT_EPOCH":14347,"BSTAR":2.8883532e-5,"MEAN_MOTION_DOT":5.33e-6,"MEAN_MOTION_DDOT":0}]
